OBJECT_NAME,OBJECT_ID,EPOCH,MEAN_MOTION,ECCENTRICITY,INCLINATION,RA_OF_ASC_NODE,ARG_OF_PERICENTER,MEAN_ANOMALY,EPHEMERIS_TYPE,CLASSIFICATION_TYPE,NORAD_CAT_ID,ELEMENT_SET_NO,REV_AT_EPOCH,BSTAR,MEAN_MOTION_DOT,MEAN_MOTION_DDOT
STARLINK-30113,2023-056F,2026-06-10T22:46:31.719072,15.27575810,.00006854,43.0072,42.1700,166.2939,193.7931,0,U,56291,999,17430,-.389891E-6,-.273E-5,0
STARLINK-30098,2023-056G,2026-06-11T03:45:37.894176,15.27601694,.00014444,43.0011,41.1339,269.6235,90.4451,0,U,56292,999,17433,.88113788E-3,.2408E-3,0
STARLINK-30049,2023-056J,2026-06-10T23:23:30.540192,15.27546445,.00008947,42.9941,42.2825,260.2798,99.7952,0,U,56294,999,17430,.2355128E-3,.6218E-4,0
STARLINK-30083,2023-056K,2026-06-10T23:05:56.146560,15.27581697,.00014157,43.0040,16.9559,275.7898,84.2792,0,U,56295,999,17458,.727283E-4,.174E-4,0
STARLINK-30089,2023-056L,2026-06-11T05:41:45.353472,15.27665728,.00019594,43.0101,0.8314,255.7000,104.3635,0,U,56296,999,17480,-.68987733E-3,-.19248E-3,0
STARLINK-30086,2023-056M,2026-06-10T23:16:06.114144,15.27578678,.0001167,42.9939,42.2364,274.0034,86.0684,0,U,56297,999,17430,.28339162E-4,.518E-5,0
STARLINK-30109,2023-056N,2026-06-10T22:39:05.745600,15.27583728,.00025422,42.9956,42.0521,274.7293,85.3268,0,U,56298,999,17436,.59361709E-4,.1372E-4,0
STARLINK-30108,2023-056P,2026-06-10T21:36:25.353216,15.27572428,.0001433,43.0052,31.3055,253.0086,107.0608,0,U,56299,999,17448,.34849504E-4,.697E-5,0
STARLINK-30104,2023-056Q,2026-06-10T23:12:25.335360,15.27582723,.00013462,43.0044,42.3028,270.4570,89.6128,0,U,56300,999,17436,-.210223E-5,-.32E-5,0
STARLINK-30101,2023-056R,2026-06-10T09:33:55.016352,15.27973940,.00023314,43.0008,44.9040,266.1852,93.8733,0,U,56301,999,17428,.84329738E-3,.23298E-3,0
STARLINK-30111,2023-056S,2026-06-09T22:53:48.071040,15.27579020,.00025356,43.0107,47.5308,279.0690,80.9875,0,U,56302,999,17421,.14361675E-4,.132E-5,0
STARLINK-30099,2023-056U,2026-06-10T22:31:41.629728,15.27580779,.00017309,43.0035,42.0056,270.9109,89.1545,0,U,56304,999,17436,.40089583E-4,.841E-5,0
STARLINK-30094,2023-056V,2026-06-10T22:40:58.348992,15.27567898,.00008917,43.0044,42.0426,257.4231,102.6521,0,U,56305,999,17436,-.137523E-5,-.3E-5,0
STARLINK-30112,2023-056W,2026-06-10T22:20:37.317408,15.27558470,.00010221,43.0057,41.9576,244.5364,115.5382,0,U,56306,999,17436,-.81451346E-4,-.2501E-4,0
POEM-2,2023-057A,2026-06-11T06:16:18.232032,14.94968000,.00208239,9.8888,305.0268,210.4573,149.4428,0,U,56308,999,17137,.12254345E-3,.2082E-4,0
LUMELITE-4,2023-057B,2026-06-11T06:30:13.696704,15.21902481,.00044908,9.9908,105.2330,2.5685,357.4554,0,U,56309,999,17315,.39502028E-3,.10196E-3,0
TELEOS-2,2023-057C,2026-06-09T19:47:10.531680,14.96399866,.00009836,9.9881,257.7953,263.7139,96.2963,0,U,56310,999,17169,-.1668089E-5,.669E-5,0
STARLINK-6038,2023-058A,2026-06-11T05:45:39.012768,15.05689320,.00019248,97.3749,162.6367,88.4701,271.6747,0,U,56317,999,17192,-.52522099E-3,-.7636E-4,0
STARLINK-5954,2023-058B,2026-06-11T06:41:30.329664,15.05665874,.000197,97.3756,162.7380,89.9144,270.2309,0,U,56318,999,17193,-.51767255E-4,-.805E-5,0
STARLINK-6039,2023-058C,2026-06-10T23:08:57.096672,15.05679540,.00023626,97.3757,161.3291,55.8799,304.2652,0,U,56319,999,17181,-.39453608E-3,-.575E-4,0
STARLINK-5988,2023-058D,2026-06-10T22:52:59.787264,15.05658750,.00031557,97.3743,161.1930,59.6939,300.4600,0,U,56320,999,17181,.274492E-6,-.54E-6,0
STARLINK-5876,2023-058E,2026-06-11T06:00:02.000160,15.05659964,.00013104,97.3731,162.6850,92.4799,51.7275,0,U,56321,999,563,.34687996E-3,.4952E-4,0
STARLINK-6033,2023-058F,2026-06-11T06:03:38.943648,15.05660637,.00013434,97.3745,161.5534,56.6722,303.4634,0,U,56322,999,17185,-.12996089E-3,-.1933E-4,0
STARLINK-6035,2023-058G,2026-06-11T05:55:40.577952,15.05656320,.00018851,97.3741,161.5614,91.5862,268.5581,0,U,56323,999,17184,-.72074013E-4,-.1097E-4,0
STARLINK-6034,2023-058H,2026-06-11T06:37:30.297504,15.05660825,.00019132,97.3728,162.7422,102.1390,258.0052,0,U,56324,999,17193,-.15342551E-3,-.2271E-4,0
STARLINK-5981,2023-058J,2026-06-11T06:27:34.251552,15.05661852,.00026645,97.3761,161.5331,84.8116,275.3415,0,U,56325,999,17220,-.11194208E-3,-.1673E-4,0
STARLINK-5980,2023-058K,2026-06-11T06:55:28.912512,15.05653228,.00022168,97.3734,161.5058,88.4607,271.6874,0,U,56326,999,17185,.20222494E-4,.234E-5,0
STARLINK-5997,2023-058L,2026-06-11T00:00:47.408544,15.05658871,.0002866,97.3746,161.2825,87.1381,273.0175,0,U,56327,999,17216,-.10126385E-3,-.1519E-4,0
STARLINK-5992,2023-058M,2026-06-11T05:53:37.953024,15.05658208,.00020708,97.3736,162.6306,98.0831,262.0632,0,U,56328,999,17227,-.12773486E-3,-.1901E-4,0
STARLINK-5984,2023-058N,2026-06-10T23:10:55.032672,15.05650560,.00020486,97.3753,162.3953,60.5276,299.6156,0,U,56329,999,17223,-.14739311E-4,-.27E-5,0
