1 56291U 23056F 26161.94897823 -.00000273 00000+0 -38989-6 0 9991 
2 56291 43.0072 42.1700 0000685 166.2939 193.7931 15.27575810174309 
1 56292U 23056G 26162.15668859 .00024080 00000+0 88114-3 0 9993 
2 56292 43.0011 41.1339 0001444 269.6235 90.4451 15.27601694174334 
1 56294U 23056J 26161.97465903 .00006218 00000+0 23551-3 0 9996 
2 56294 42.9941 42.2825 0000894 260.2798 99.7952 15.27546445174304 
1 56295U 23056K 26161.96245540 .00001740 00000+0 72728-4 0 9995 
2 56295 43.0040 16.9559 0001415 275.7898 84.2792 15.27581697174580 
1 56296U 23056L 26162.23733048 -.00019248 00000+0 -68988-3 0 9998 
2 56296 43.0101 0.8314 0001959 255.7000 104.3635 15.27665728174809 
1 56297U 23056M 26161.96951521 .00000518 00000+0 28339-4 0 9991 
2 56297 42.9939 42.2364 0001167 274.0034 86.0684 15.27578678174306 
1 56298U 23056N 26161.94381650 .00001372 00000+0 59362-4 0 9999 
2 56298 42.9956 42.0521 0002542 274.7293 85.3268 15.27583728174369 
1 56299U 23056P 26161.90029344 .00000697 00000+0 34850-4 0 9999 
2 56299 43.0052 31.3055 0001433 253.0086 107.0608 15.27572428174488 
1 56300U 23056Q 26161.96695990 -.00000320 00000+0 -21022-5 0 9997 
2 56300 43.0044 42.3028 0001346 270.4570 89.6128 15.27582723174366 
1 56301U 23056R 26161.39855343 .00023298 00000+0 84330-3 0 9991 
2 56301 43.0008 44.9040 0002331 266.1852 93.8733 15.27973940174284 
1 56302U 23056S 26160.95402860 .00000132 00000+0 14362-4 0 9996 
2 56302 43.0107 47.5308 0002535 279.0690 80.9875 15.27579020174218 
1 56304U 23056U 26161.93867627 .00000841 00000+0 40090-4 0 9997 
2 56304 43.0035 42.0056 0001730 270.9109 89.1545 15.27580779174365 
1 56305U 23056V 26161.94511978 -.00000300 00000+0 -13752-5 0 9992 
2 56305 43.0044 42.0426 0000891 257.4231 102.6521 15.27567898174362 
1 56306U 23056W 26161.93098747 -.00002501 00000+0 -81451-4 0 9991 
2 56306 43.0057 41.9576 0001022 244.5364 115.5382 15.27558470174366 
1 56308U 23057A 26162.26132213 .00002082 00000+0 12254-3 0 9994 
2 56308 9.8888 305.0268 0020823 210.4573 149.4428 14.94968000171378 
1 56309U 23057B 26162.27099186 .00010196 00000+0 39502-3 0 9997 
2 56309 9.9908 105.2330 0004490 2.5685 357.4554 15.21902481173150 
1 56310U 23057C 26160.82442745 .00000669 00000+0 -16681-5 0 9991 
2 56310 9.9881 257.7953 0000983 263.7139 96.2963 14.96399866171691 
1 56317U 23058A 26162.24003487 -.00007636 00000+0 -52522-3 0 9997 
2 56317 97.3749 162.6367 0001924 88.4701 271.6747 15.05689320171921 
1 56318U 23058B 26162.27882326 -.00000805 00000+0 -51767-4 0 9990 
2 56318 97.3756 162.7380 0001970 89.9144 270.2309 15.05665874171932 
1 56319U 23058C 26161.96454973 -.00005750 00000+0 -39454-3 0 9991 
2 56319 97.3757 161.3291 0002362 55.8799 304.2652 15.05679540171815 
1 56320U 23058D 26161.95346976 -.00000054 00000+0 27449-6 0 9990 
2 56320 97.3743 161.1930 0003155 59.6939 300.4600 15.05658750171810 
1 56321U 23058E 26162.25002315 .00004952 00000+0 34688-3 0 9991 
2 56321 97.3731 162.6850 0001310 92.4799 51.7275 15.05659964 5633 
1 56322U 23058F 26162.25253407 -.00001933 00000+0 -12996-3 0 9998 
2 56322 97.3745 161.5534 0001343 56.6722 303.4634 15.05660637171853 
1 56323U 23058G 26162.24699743 -.00001097 00000+0 -72074-4 0 9990 
2 56323 97.3741 161.5614 0001885 91.5862 268.5581 15.05656320171848 
1 56324U 23058H 26162.27604511 -.00002271 00000+0 -15343-3 0 9993 
2 56324 97.3728 162.7422 0001913 102.1390 258.0052 15.05660825171933 
1 56325U 23058J 26162.26914643 -.00001673 00000+0 -11194-3 0 9998 
2 56325 97.3761 161.5331 0002664 84.8116 275.3415 15.05661852172200 
1 56326U 23058K 26162.28852908 .00000234 00000+0 20222-4 0 9999 
2 56326 97.3734 161.5058 0002216 88.4607 271.6874 15.05653228171851 
1 56327U 23058L 26162.00054871 -.00001519 00000+0 -10126-3 0 9993 
2 56327 97.3746 161.2825 0002866 87.1381 273.0175 15.05658871172164 
1 56328U 23058M 26162.24557816 -.00001901 00000+0 -12773-3 0 9992 
2 56328 97.3736 162.6306 0002070 98.0831 262.0632 15.05658208172273 
1 56329U 23058N 26161.96591473 -.00000270 00000+0 -14739-4 0 9991 
2 56329 97.3753 162.3953 0002048 60.5276 299.6156 15.05650560172236 
